SZ-20 MODULE            
1 67481U 25082C   26027.54457554  .00028524  00000+0  32141-3 0  9993
2 67481  41.4791  98.1685 0006738  24.3263 335.7894 15.61875440271184
TRANSPORTER-15DT        
1 67483U 25276DT  26027.63799795  .00001961  00000+0  17232-3 0  9996
2 67483  97.5428 103.1783 0010314 240.2537 119.7660 14.97650943  1571
STARLINK-36551          
1 67493U 26012A   26019.01773773 -.00002725  86142-5  00000+0 0  9995
2 67493  43.0100 248.3700 0007700 319.9700  13.3500 16.05267929    16
STARLINK-36396          
1 67494U 26012B   26019.01773773 -.00002725  86142-5  00000+0 0  9996
2 67494  43.0100 248.3700 0007700 319.9700  13.3500 16.05267929    17
STARLINK-36550          
1 67495U 26012C   26019.01773773 -.00002725  86142-5  00000+0 0  9997
2 67495  43.0100 248.3700 0007700 319.9700  13.3500 16.05267929    18
STARLINK-36534          
1 67496U 26012D   26019.01773773 -.00002725  86142-5  00000+0 0  9998
2 67496  43.0100 248.3700 0007700 319.9700  13.3500 16.05267929    19
STARLINK-36555          
1 67497U 26012E   26019.01773773 -.00002725  86142-5  00000+0 0  9999
2 67497  43.0100 248.3700 0007700 319.9700  13.3500 16.05267929    10
STARLINK-36081          
1 67498U 26012F   26019.01773773 -.00002725  86142-5  00000+0 0  9990
2 67498  43.0100 248.3700 0007700 319.9700  13.3500 16.05267929    11
STARLINK-36558          
1 67499U 26012G   26019.01773773 -.00002725  86142-5  00000+0 0  9991
2 67499  43.0100 248.3700 0007700 319.9700  13.3500 16.05267929    12
STARLINK-36557          
1 67500U 26012H   26019.01773773 -.00002725  86142-5  00000+0 0  9994
2 67500  43.0100 248.3700 0007700 319.9700  13.3500 16.05267929    15
STARLINK-36433          
1 67501U 26012J   26019.01773773 -.00002725  86142-5  00000+0 0  9995
2 67501  43.0100 248.3700 0007700 319.9700  13.3500 16.05267929    16
STARLINK-36554          
1 67502U 26012K   26019.01773773 -.00002725  86142-5  00000+0 0  9996
2 67502  43.0100 248.3700 0007700 319.9700  13.3500 16.05267929    17
